{
  "norad_id": 56922,
  "name": "STARLINK-5937",
  "history": [
    {
      "epoch": "2026-03-28T22:00:01.999584",
      "apogee_km": 494.8320816202622,
      "perigee_km": 492.85556249622186,
      "latitude_deg": 36.71539783417363,
      "longitude_deg": -39.79777824017219,
      "semi_major_axis_km": 6871.980822058242,
      "eccentricity": 0.00014381,
      "inclination_deg": 43.0041,
      "raan_deg": 322.2168,
      "arg_perigee_deg": 256.2798,
      "mean_anomaly_deg": 231.283,
      "mean_motion_rev_day": 15.23982057
    },
    {
      "epoch": "2026-03-29T04:00:01.999584",
      "apogee_km": 494.1651739614199,
      "perigee_km": 491.96364103045835,
      "latitude_deg": -40.94412320608755,
      "longitude_deg": -15.797778240172192,
      "semi_major_axis_km": 6871.201407495939,
      "eccentricity": 0.0001602,
      "inclination_deg": 43.0043,
      "raan_deg": 320.8108,
      "arg_perigee_deg": 262.8934,
      "mean_anomaly_deg": 157.9781,
      "mean_motion_rev_day": 15.24241367
    }
  ]
}